{
"type": "FeatureCollection",
"name": "zofe_crop_plots",
"category": "crop",
"mode": "insert",
"crs": { "type": "name", "properties": { "name": "urn:ogc:def:crs:EPSG::2056" } },
"features": [
{"type":"Feature","properties":{"row":1,"col":1,"id":"x1_y1"},"geometry":{"type":"Polygon","coordinates":[[[2681474.798500130884349,1253431.214490617392585],[2681534.799000128172338,1253431.214490617392585],[2681534.799000128172338,1253438.214810616569594],[2681474.798500130884349,1253438.214810616569594],[2681474.798500130884349,1253431.214490617392585]]]}},
{"type":"Feature","properties":{"row":2,"col":1,"id":"x1_y2"},"geometry":{"type":"Polygon","coordinates":[[[2681474.798500130884349,1253438.214810616569594],[2681534.799000128172338,1253438.214810616569594],[2681534.799000128172338,1253445.215130615746602],[2681474.798500130884349,1253445.215130615746602],[2681474.798500130884349,1253438.214810616569594]]]}},
{"type":"Feature","properties":{"row":3,"col":1,"id":"x1_y3"},"geometry":{"type":"Polygon","coordinates":[[[2681474.798500130884349,1253445.215130615746602],[2681534.799000128172338,1253445.215130615746602],[2681534.799000128172338,1253452.215450614923611],[2681474.798500130884349,1253452.215450614923611],[2681474.798500130884349,1253445.215130615746602]]]}},
{"type":"Feature","properties":{"row":4,"col":1,"id":"x1_y4"},"geometry":{"type":"Polygon","coordinates":[[[2681474.798500130884349,1253452.215450614923611],[2681534.799000128172338,1253452.215450614923611],[2681534.799000128172338,1253459.21577061410062],[2681474.798500130884349,1253459.21577061410062],[2681474.798500130884349,1253452.215450614923611]]]}},
{"type":"Feature","properties":{"row":5,"col":1,"id":"x1_y5"},"geometry":{"type":"Polygon","coordinates":[[[2681474.798500130884349,1253459.21577061410062],[2681534.799000128172338,1253459.21577061410062],[2681534.799000128172338,1253466.216090613277629],[2681474.798500130884349,1253466.216090613277629],[2681474.798500130884349,1253459.21577061410062]]]}}
]
}
