{
"type": "FeatureCollection",
"name": "zofe_experiment_plots",
"category": "experiment_plots",
"mode": "insert",
"crs": { "type": "name", "properties": { "name": "urn:ogc:def:crs:EPSG::2056" } },
"features": [
{"type":"Feature","properties":{"row":1,"col":1,"id":"x1_y1"},"geometry":{"type":"Polygon","coordinates":[[[2681474.798500130884349,1253466.214590615592897],[2681534.798400129191577,1253466.216090613277629],[2681534.799000128172338,1253431.215990616474301],[2681474.799200127832592,1253431.214490617392585],[2681474.798500130884349,1253466.214590615592897]]]}}
]
}
