{
"type": "FeatureCollection",
"id": null,
"name": "hypercover_measurement_plots_250717",
"category": "measurement",
"mode": "insert",
"crs": { "type": "name", "properties": { "name": "urn:ogc:def:crs:EPSG::2056" } },
"features": [
{ "type": "Feature", "properties": { "id": "x3_y4", "row": 4, "col": 3 }, "geometry": { "type": "Polygon", "coordinates": [ [ [ 2681771.520043931901455, 1253846.335153638385236 ], [ 2681771.019831067416817, 1253846.334275869186968 ], [ 2681771.018953294958919, 1253846.834488744847476 ], [ 2681771.519166159909219, 1253846.835366514045745 ], [ 2681771.520043931901455, 1253846.335153638385236 ] ] ] } },
{ "type": "Feature", "properties": { "id": "x7_y4", "row": 4, "col": 7 }, "geometry": { "type": "Polygon", "coordinates": [ [ [ 2681786.512657319195569, 1253846.436126701068133 ], [ 2681786.012444447726011, 1253846.435248934663832 ], [ 2681786.011566685512662, 1253846.935461819404736 ], [ 2681786.511779556982219, 1253846.936339581385255 ], [ 2681786.512657319195569, 1253846.436126701068133 ] ] ] } },
{ "type": "Feature", "properties": { "id": "x1_y4", "row": 4, "col": 1 }, "geometry": { "type": "Polygon", "coordinates": [ [ [ 2681765.574915927369148, 1253845.237687459448352 ], [ 2681765.0747030666098, 1253845.236809684429318 ], [ 2681765.073825290426612, 1253845.737022554734722 ], [ 2681765.574038151651621, 1253845.737900332547724 ], [ 2681765.574915927369148, 1253845.237687459448352 ] ] ] } },
{ "type": "Feature", "properties": { "id": "x7_y3", "row": 3, "col": 7 }, "geometry": { "type": "Polygon", "coordinates": [ [ [ 2681786.492238085251302, 1253838.631124659441411 ], [ 2681785.99202521936968, 1253838.630246901884675 ], [ 2681785.991147460415959, 1253839.13045978336595 ], [ 2681786.491360326297581, 1253839.131337538128719 ], [ 2681786.492238085251302, 1253838.631124659441411 ] ] ] } },
{ "type": "Feature", "properties": { "id": "x3_y3", "row": 3, "col": 3 }, "geometry": { "type": "Polygon", "coordinates": [ [ [ 2681771.415820381604135, 1253835.005512641277164 ], [ 2681770.915607524570078, 1253835.004634877434 ], [ 2681770.914729757234454, 1253835.504847745643929 ], [ 2681771.414942614268512, 1253835.50572551204823 ], [ 2681771.415820381604135, 1253835.005512641277164 ] ] ] } },
{ "type": "Feature", "properties": { "id": "x1_y2", "row": 2, "col": 1 }, "geometry": { "type": "Polygon", "coordinates": [ [ [ 2681765.556208923459053, 1253826.311397028155625 ], [ 2681765.055996074806899, 1253826.310519263148308 ], [ 2681765.055118307005614, 1253826.81073212181218 ], [ 2681765.55533115612343, 1253826.811609886819497 ], [ 2681765.556208923459053, 1253826.311397028155625 ] ] ] } },
{ "type": "Feature", "properties": { "id": "x7_y2", "row": 2, "col": 7 }, "geometry": { "type": "Polygon", "coordinates": [ [ [ 2681786.754902721848339, 1253826.668307815678418 ], [ 2681786.254689863882959, 1253826.667430060682818 ], [ 2681786.253812110517174, 1253827.167642929358408 ], [ 2681786.754024968482554, 1253827.168520682957023 ], [ 2681786.754902721848339, 1253826.668307815678418 ] ] ] } },
{ "type": "Feature", "properties": { "id": "x3_y2", "row": 2, "col": 3 }, "geometry": { "type": "Polygon", "coordinates": [ [ [ 2681771.438090105075389, 1253826.164532661670819 ], [ 2681770.937877254094929, 1253826.163654896663502 ], [ 2681770.936999490484595, 1253826.663867758587003 ], [ 2681771.437212341930717, 1253826.664745524758473 ], [ 2681771.438090105075389, 1253826.164532661670819 ] ] ] } },
{ "type": "Feature", "properties": { "id": "x3_y1", "row": 1, "col": 3 }, "geometry": { "type": "Polygon", "coordinates": [ [ [ 2681771.546794215217233, 1253815.56648449646309 ], [ 2681771.046581371221691, 1253815.565606739837676 ], [ 2681771.045703612267971, 1253816.065819592913613 ], [ 2681771.545916456729174, 1253816.06669735070318 ], [ 2681771.546794215217233, 1253815.56648449646309 ] ] ] } },
{ "type": "Feature", "properties": { "id": "x7_y1", "row": 1, "col": 7 }, "geometry": { "type": "Polygon", "coordinates": [ [ [ 2681786.66118113650009, 1253815.081993509782478 ], [ 2681786.160968285985291, 1253815.081115761538967 ], [ 2681786.16009053774178, 1253815.581328627420589 ], [ 2681786.66030338825658, 1253815.582206372870132 ], [ 2681786.66118113650009, 1253815.081993509782478 ] ] ] } },
{ "type": "Feature", "properties": { "id": "x1_y1", "row": 1, "col": 1 }, "geometry": { "type": "Polygon", "coordinates": [ [ [ 2681765.640746550634503, 1253813.246057781158015 ], [ 2681765.140533711295575, 1253813.245180018479005 ], [ 2681765.139655949547887, 1253813.745392868295312 ], [ 2681765.639868789352477, 1253813.74627063353546 ], [ 2681765.640746550634503, 1253813.246057781158015 ] ] ] } },
{ "type": "Feature", "properties": { "id": "x1_y3", "row": 3, "col": 1 }, "geometry": { "type": "Polygon", "coordinates": [ [ [ 2681765.525395231787115, 1253835.580588893964887 ], [ 2681765.025182377081364, 1253835.579711124533787 ], [ 2681765.024304605554789, 1253836.079923992510885 ], [ 2681765.52451746026054, 1253836.080801763106138 ], [ 2681765.525395231787115, 1253835.580588893964887 ] ] ] } }
]
}
