{
"type": "FeatureCollection",
"id": null,
"name": "hypercover_crop_plots",
"category": "crop",
"mode": "insert",
"crs": { "type": "name", "properties": { "name": "urn:ogc:def:crs:EPSG::2056" } },
"features": [
{ "type": "Feature", "properties": { "id": "x1_y1", "row": 1, "col": 1 }, "geometry": { "type": "Polygon", "coordinates": [ [ [ 2681763.897558778930, 1253801.855429378338158 ], [ 2681763.897558778930, 1253852.94392519001849 ], [ 2681769.826809195801616, 1253852.94392519001849 ], [ 2681769.826809195801616, 1253801.855429378338158 ], [ 2681763.897558778930, 1253801.855429378338158 ] ] ] } },
{ "type": "Feature", "properties": { "id": "x2_y1", "row": 1, "col": 2 }, "geometry": { "type": "Polygon", "coordinates": [ [ [ 2681769.898928058333695, 1253801.975171485217288 ], [ 2681769.898928058333695, 1253853.063667529029772 ], [ 2681775.828178006224334, 1253853.063667529029772 ], [ 2681775.828178006224334, 1253801.975171485217288 ], [ 2681769.898928058333695, 1253801.975171485217288 ] ] ] } },
{ "type": "Feature", "properties": { "id": "x3_y1", "row": 1, "col": 3 }, "geometry": { "type": "Polygon", "coordinates": [ [ [ 2681778.900981894228607, 1253802.15478455205448 ], [ 2681778.900981894228607, 1253853.243280950933695 ], [ 2681784.830231285654008, 1253853.243280950933695 ], [ 2681784.830231285654008, 1253802.15478455205448 ], [ 2681778.900981894228607, 1253802.15478455205448 ] ] ] } },
{ "type": "Feature", "properties": { "id": "x4_y1", "row": 1, "col": 4 }, "geometry": { "type": "Polygon", "coordinates": [ [ [ 2681784.902351160068065, 1253802.274526543915272 ], [ 2681784.902351160068065, 1253853.363023174693808 ], [ 2681790.83160018036142, 1253853.363023174693808 ], [ 2681790.83160018036142, 1253802.274526543915272 ], [ 2681784.902351160068065, 1253802.274526543915272 ] ] ] } }
]
}
