{
"type": "FeatureCollection",
"id": null,
"name": "hypercover_measurement_plots_250610",
"category": "measurement",
"mode": "insert",
"crs": { "type": "name", "properties": { "name": "urn:ogc:def:crs:EPSG::2056" } },
"features": [
{ "type": "Feature", "properties": { "id": "x1_y4", "col": 1, "row": 4 }, "geometry": { "type": "Polygon", "coordinates": [ [ [ 2681766.21285136975348, 1253842.783226762199774 ], [ 2681765.592979030217975, 1253842.776467379415408 ], [ 2681765.583238980732858, 1253843.780118279159069 ], [ 2681766.211095821578056, 1253843.78365250187926 ], [ 2681766.21285136975348, 1253842.783226762199774 ] ] ] } },
{ "type": "Feature", "properties": { "id": "x2_y4", "col": 2, "row": 4 }, "geometry": { "type": "Polygon", "coordinates": [ [ [ 2681767.838394496124238, 1253842.821269034175202 ], [ 2681767.212980784941465, 1253842.812284571584314 ], [ 2681767.211225237697363, 1253843.812710311962292 ], [ 2681767.835069336462766, 1253843.81270556920208 ], [ 2681767.838394496124238, 1253842.821269034175202 ] ] ] } },
{ "type": "Feature", "properties": { "id": "x5_y4", "col": 5, "row": 4 }, "geometry": { "type": "Polygon", "coordinates": [ [ [ 2681781.197536993771791, 1253842.934918730752543 ], [ 2681780.697324126958847, 1253842.934040966676548 ], [ 2681780.695568598341197, 1253843.934466726146638 ], [ 2681781.195781465154141, 1253843.935344487195835 ], [ 2681781.197536993771791, 1253842.934918730752543 ] ] ] } },
{ "type": "Feature", "properties": { "id": "x6_y4", "col": 6, "row": 4 }, "geometry": { "type": "Polygon", "coordinates": [ [ [ 2681782.697879289742559, 1253842.96485428372398 ], [ 2681782.197666422929615, 1253842.963976522441953 ], [ 2681782.195910895708948, 1253843.964402279816568 ], [ 2681782.696123763453215, 1253843.965280045289546 ], [ 2681782.697879289742559, 1253842.96485428372398 ] ] ] } },
{ "type": "Feature", "properties": { "id": "x7_y4", "col": 7, "row": 4 }, "geometry": { "type": "Polygon", "coordinates": [ [ [ 2681787.059063848573714, 1253843.044668556656688 ], [ 2681786.558850979898125, 1253843.043790796771646 ], [ 2681786.557095458265394, 1253844.044216554379091 ], [ 2681787.057308327872306, 1253844.045094317058101 ], [ 2681787.059063848573714, 1253843.044668556656688 ] ] ] } },
{ "type": "Feature", "properties": { "id": "x8_y4", "col": 8, "row": 4 }, "geometry": { "type": "Polygon", "coordinates": [ [ [ 2681788.709440383594483, 1253843.077597653726116 ], [ 2681788.209227513987571, 1253843.076719888253137 ], [ 2681788.207471994683146, 1253844.077145656105131 ], [ 2681788.707684865221381, 1253844.078023414360359 ], [ 2681788.709440383594483, 1253843.077597653726116 ] ] ] } },
{ "type": "Feature", "properties": { "id": "x3_y4", "col": 3, "row": 4 }, "geometry": { "type": "Polygon", "coordinates": [ [ [ 2681772.143833223730326, 1253842.66064661485143 ], [ 2681771.643620361573994, 1253842.6597688451875 ], [ 2681771.641864820383489, 1253843.660194594180211 ], [ 2681772.142077683471143, 1253843.661072362447158 ], [ 2681772.143833223730326, 1253842.66064661485143 ] ] ] } },
{ "type": "Feature", "properties": { "id": "x4_y4", "col": 4, "row": 4 }, "geometry": { "type": "Polygon", "coordinates": [ [ [ 2681773.79420973546803, 1253842.693575744749978 ], [ 2681773.293996872380376, 1253842.692697975086048 ], [ 2681773.292241333983839, 1253843.693123724544421 ], [ 2681773.792454197537154, 1253843.694001491181552 ], [ 2681773.79420973546803, 1253842.693575744749978 ] ] ] } },
{ "type": "Feature", "properties": { "id": "x7_y3", "col": 7, "row": 3 }, "geometry": { "type": "Polygon", "coordinates": [ [ [ 2681787.188847514335066, 1253835.038446670165285 ], [ 2681786.688634650781751, 1253835.037568910513073 ], [ 2681786.6868791365996, 1253836.037994659738615 ], [ 2681787.187092001084238, 1253836.038872414967045 ], [ 2681787.188847514335066, 1253835.038446670165285 ] ] ] } },
{ "type": "Feature", "properties": { "id": "x8_y3", "col": 8, "row": 3 }, "geometry": { "type": "Polygon", "coordinates": [ [ [ 2681788.689189802855253, 1253835.06838219682686 ], [ 2681788.188976938836277, 1253835.06750444159843 ], [ 2681788.187221426516771, 1253836.067930190358311 ], [ 2681788.687434291467071, 1253836.068807948380709 ], [ 2681788.689189802855253, 1253835.06838219682686 ] ] ] } },
{ "type": "Feature", "properties": { "id": "x5_y3", "col": 5, "row": 3 }, "geometry": { "type": "Polygon", "coordinates": [ [ [ 2681781.306116338353604, 1253832.619978823931888 ], [ 2681780.805903478525579, 1253832.619101064046845 ], [ 2681780.804147959221154, 1253833.619526807917282 ], [ 2681781.30436081904918, 1253833.62040456617251 ], [ 2681781.306116338353604, 1253832.619978823931888 ] ] ] } },
{ "type": "Feature", "properties": { "id": "x6_y3", "col": 6, "row": 3 }, "geometry": { "type": "Polygon", "coordinates": [ [ [ 2681782.806458614300936, 1253832.649914363399148 ], [ 2681782.30624575400725, 1253832.649036603514105 ], [ 2681782.304490236099809, 1253833.649462346918881 ], [ 2681782.804703096859157, 1253833.650340106571093 ], [ 2681782.806458614300936, 1253832.649914363399148 ] ] ] } },
{ "type": "Feature", "properties": { "id": "x1_y3", "col": 1, "row": 3 }, "geometry": { "type": "Polygon", "coordinates": [ [ [ 2681766.127662752754986, 1253832.181009993422776 ], [ 2681765.627449900377542, 1253832.180132219335064 ], [ 2681765.625694360584021, 1253833.180557949002832 ], [ 2681766.125907213892788, 1253833.18143572146073 ], [ 2681766.127662752754986, 1253832.181009993422776 ] ] ] } },
{ "type": "Feature", "properties": { "id": "x2_y3", "col": 2, "row": 3 }, "geometry": { "type": "Polygon", "coordinates": [ [ [ 2681767.628005006816238, 1253832.210945558734238 ], [ 2681767.127792153973132, 1253832.210067790467292 ], [ 2681767.126036616507918, 1253833.210493518272415 ], [ 2681767.626249470282346, 1253833.211371289333329 ], [ 2681767.628005006816238, 1253832.210945558734238 ] ] ] } },
{ "type": "Feature", "properties": { "id": "x3_y3", "col": 3, "row": 3 }, "geometry": { "type": "Polygon", "coordinates": [ [ [ 2681772.275364695116878, 1253832.040072586853057 ], [ 2681771.775151840411127, 1253832.039194824174047 ], [ 2681771.773396308999509, 1253833.039620559196919 ], [ 2681772.273609164636582, 1253833.040498320246115 ], [ 2681772.275364695116878, 1253832.040072586853057 ] ] ] } },
{ "type": "Feature", "properties": { "id": "x4_y3", "col": 4, "row": 3 }, "geometry": { "type": "Polygon", "coordinates": [ [ [ 2681773.775706957560033, 1253832.070008145878091 ], [ 2681773.275494101922959, 1253832.069130381802097 ], [ 2681773.273738572839648, 1253833.069556116359308 ], [ 2681773.773951428942382, 1253833.070433877408504 ], [ 2681773.775706957560033, 1253832.070008145878091 ] ] ] } },
{ "type": "Feature", "properties": { "id": "x1_y2", "col": 1, "row": 2 }, "geometry": { "type": "Polygon", "coordinates": [ [ [ 2681765.993200864177197, 1253821.723659681621939 ], [ 2681765.492988018784672, 1253821.722781913122162 ], [ 2681765.491232488304377, 1253822.723207629984245 ], [ 2681765.991445334628224, 1253822.724085389636457 ], [ 2681765.993200864177197, 1253821.723659681621939 ] ] ] } },
{ "type": "Feature", "properties": { "id": "x2_y2", "col": 2, "row": 2 }, "geometry": { "type": "Polygon", "coordinates": [ [ [ 2681767.64357732096687, 1253821.756588790332898 ], [ 2681767.143364474643022, 1253821.755711026024073 ], [ 2681767.141608946491033, 1253822.756136737531051 ], [ 2681767.641821793280542, 1253822.757014501607046 ], [ 2681767.64357732096687, 1253821.756588790332898 ] ] ] } },
{ "type": "Feature", "properties": { "id": "x5_y2", "col": 5, "row": 2 }, "geometry": { "type": "Polygon", "coordinates": [ [ [ 2681781.126324652694166, 1253821.996794274542481 ], [ 2681780.626111800782382, 1253821.995916520245373 ], [ 2681780.624356289859861, 1253822.996342248748988 ], [ 2681781.124569143168628, 1253822.997220003046095 ], [ 2681781.126324652694166, 1253821.996794274542481 ] ] ] } },
{ "type": "Feature", "properties": { "id": "x6_y2", "col": 6, "row": 2 }, "geometry": { "type": "Polygon", "coordinates": [ [ [ 2681782.726689724717289, 1253822.028725497890264 ], [ 2681782.226476871408522, 1253822.027847750810906 ], [ 2681782.224721363279969, 1253823.028273478616029 ], [ 2681782.724934216588736, 1253823.02915122709237 ], [ 2681782.726689724717289, 1253822.028725497890264 ] ] ] } },
{ "type": "Feature", "properties": { "id": "x3_y2", "col": 3, "row": 2 }, "geometry": { "type": "Polygon", "coordinates": [ [ [ 2681772.237579342443496, 1253821.660994145553559 ], [ 2681771.737366494257003, 1253821.660116382874548 ], [ 2681771.735610972158611, 1253822.660542102297768 ], [ 2681772.235823821276426, 1253822.661419866373762 ], [ 2681772.237579342443496, 1253821.660994145553559 ] ] ] } },
{ "type": "Feature", "properties": { "id": "x4_y2", "col": 4, "row": 2 }, "geometry": { "type": "Polygon", "coordinates": [ [ [ 2681773.737921584397554, 1253821.690929685952142 ], [ 2681773.237708735279739, 1253821.690051927464083 ], [ 2681773.235953215509653, 1253822.690477646421641 ], [ 2681773.73616606509313, 1253822.691355406306684 ], [ 2681773.737921584397554, 1253821.690929685952142 ] ] ] } },
{ "type": "Feature", "properties": { "id": "x7_y2", "col": 7, "row": 2 }, "geometry": { "type": "Polygon", "coordinates": [ [ [ 2681787.213834311347455, 1253821.513272928772494 ], [ 2681786.713621456641704, 1253821.512395185651258 ], [ 2681786.711865954566747, 1253822.512820914387703 ], [ 2681787.212078809738159, 1253822.513698664261028 ], [ 2681787.213834311347455, 1253821.513272928772494 ] ] ] } },
{ "type": "Feature", "properties": { "id": "x8_y2", "col": 8, "row": 2 }, "geometry": { "type": "Polygon", "coordinates": [ [ [ 2681788.714176572859287, 1253821.543208440300077 ], [ 2681788.213963717687875, 1253821.542330691590905 ], [ 2681788.212208217475563, 1253822.542756429640576 ], [ 2681788.712421073578298, 1253822.543634179746732 ], [ 2681788.714176572859287, 1253821.543208440300077 ] ] ] } },
{ "type": "Feature", "properties": { "id": "x5_y1", "col": 5, "row": 1 }, "geometry": { "type": "Polygon", "coordinates": [ [ [ 2681781.303921028971672, 1253810.963735115714371 ], [ 2681780.803708183579147, 1253810.962857363978401 ], [ 2681780.801952683366835, 1253811.963283078745008 ], [ 2681781.30216552875936, 1253811.96416082745418 ], [ 2681781.303921028971672, 1253810.963735115714371 ] ] ] } },
{ "type": "Feature", "properties": { "id": "x6_y1", "col": 6, "row": 1 }, "geometry": { "type": "Polygon", "coordinates": [ [ [ 2681782.804263261612505, 1253810.993670620489866 ], [ 2681782.30405041621998, 1253810.992792875971645 ], [ 2681782.302294917404652, 1253811.993218590272591 ], [ 2681782.802507764194161, 1253811.994096337351948 ], [ 2681782.804263261612505, 1253810.993670620489866 ] ] ] } },
{ "type": "Feature", "properties": { "id": "x3_y1", "col": 3, "row": 1 }, "geometry": { "type": "Polygon", "coordinates": [ [ [ 2681772.183574978727847, 1253810.366916883736849 ], [ 2681771.683362137991935, 1253810.366039121989161 ], [ 2681771.68160662567243, 1253811.366464832099155 ], [ 2681772.181819467339665, 1253811.367342586396262 ], [ 2681772.183574978727847, 1253810.366916883736849 ] ] ] } },
{ "type": "Feature", "properties": { "id": "x4_y1", "col": 4, "row": 1 }, "geometry": { "type": "Polygon", "coordinates": [ [ [ 2681773.883962827734649, 1253810.400843810057268 ], [ 2681773.383749986067414, 1253810.399966059951112 ], [ 2681773.381994476541877, 1253811.400391763076186 ], [ 2681773.882207318209112, 1253811.401269514579326 ], [ 2681773.883962827734649, 1253810.400843810057268 ] ] ] } },
{ "type": "Feature", "properties": { "id": "x1_y1", "col": 1, "row": 1 }, "geometry": { "type": "Polygon", "coordinates": [ [ [ 2681766.32882983610034, 1253809.537085606716573 ], [ 2681765.828616998624057, 1253809.536207849159837 ], [ 2681765.826861479319632, 1253810.536633548792452 ], [ 2681766.327074317261577, 1253810.537511310307309 ], [ 2681766.32882983610034, 1253809.537085606716573 ] ] ] } },
{ "type": "Feature", "properties": { "id": "x2_y1", "col": 2, "row": 1 }, "geometry": { "type": "Polygon", "coordinates": [ [ [ 2681767.829172045923769, 1253809.567021146416664 ], [ 2681767.328959207981825, 1253809.56614338606596 ], [ 2681767.327203690540045, 1253810.566569088026881 ], [ 2681767.827416528947651, 1253810.567446845350787 ], [ 2681767.829172045923769, 1253809.567021146416664 ] ] ] } },
{ "type": "Feature", "properties": { "id": "x7_y1", "col": 7, "row": 1 }, "geometry": { "type": "Polygon", "coordinates": [ [ [ 2681787.261130368802696, 1253810.840603185584769 ], [ 2681786.760917521081865, 1253810.83972543803975 ], [ 2681786.759162028785795, 1253811.840151159325615 ], [ 2681787.259374876972288, 1253811.841028903843835 ], [ 2681787.261130368802696, 1253810.840603185584769 ] ] ] } },
{ "type": "Feature", "properties": { "id": "x8_y1", "col": 8, "row": 1 }, "geometry": { "type": "Polygon", "coordinates": [ [ [ 2681788.761472609825432, 1253810.870538682676852 ], [ 2681788.261259761638939, 1253810.869660939322785 ], [ 2681788.259504271205515, 1253811.870086654555053 ], [ 2681788.759717119857669, 1253811.870964401867241 ], [ 2681788.761472609825432, 1253810.870538682676852 ] ] ] } }
]
}
