{
"type": "FeatureCollection",
"name": "hypercover_measurement_plots_250619",
"category": "measurement_plots",
"mode": "insert",
"crs": { "type": "name", "properties": { "name": "urn:ogc:def:crs:EPSG::2056" } },
"features": [
{ "type": "Feature", "properties": { "id": "x7_y4", "row": 4, "col": 7 }, "geometry": { "type": "Polygon", "coordinates": [ [ [ 2681786.74212742689997, 1253844.715056901564822 ], [ 2681786.241914556827396, 1253844.714179141912609 ], [ 2681786.241036795545369, 1253845.214392019435763 ], [ 2681786.741249666083604, 1253845.215269783278927 ], [ 2681786.74212742689997, 1253844.715056901564822 ] ] ] } },
{ "type": "Feature", "properties": { "id": "x8_y4", "row": 4, "col": 8 }, "geometry": { "type": "Polygon", "coordinates": [ [ [ 2681789.062656863126904, 1253844.761357207084075 ], [ 2681788.562443992588669, 1253844.760479447431862 ], [ 2681788.561566232237965, 1253845.260692332638428 ], [ 2681789.061779103707522, 1253845.261570088099688 ], [ 2681789.062656863126904, 1253844.761357207084075 ] ] ] } },
{ "type": "Feature", "properties": { "id": "x5_y4", "row": 4, "col": 5 }, "geometry": { "type": "Polygon", "coordinates": [ [ [ 2681780.701413241680712, 1253844.384473830461502 ], [ 2681780.201200374867767, 1253844.383596063824371 ], [ 2681780.200322609394789, 1253844.883808944839984 ], [ 2681780.700535476673394, 1253844.884686707286164 ], [ 2681780.701413241680712, 1253844.384473830461502 ] ] ] } },
{ "type": "Feature", "properties": { "id": "x6_y4", "row": 4, "col": 6 }, "geometry": { "type": "Polygon", "coordinates": [ [ [ 2681783.031944945920259, 1253844.430973727023229 ], [ 2681782.531732078175992, 1253844.430095964577049 ], [ 2681782.530854314099997, 1253844.930308839306235 ], [ 2681783.031067182309926, 1253844.931186605943367 ], [ 2681783.031944945920259, 1253844.430973727023229 ] ] ] } },
{ "type": "Feature", "properties": { "id": "x7_y3", "row": 3, "col": 7 }, "geometry": { "type": "Polygon", "coordinates": [ [ [ 2681786.674219489563257, 1253837.016500100493431 ], [ 2681786.174006625078619, 1253837.015622339677066 ], [ 2681786.173128866590559, 1253837.51583521720022 ], [ 2681786.673341731540859, 1253837.516712977783754 ], [ 2681786.674219489563257, 1253837.016500100493431 ] ] ] } },
{ "type": "Feature", "properties": { "id": "x8_y3", "row": 3, "col": 8 }, "geometry": { "type": "Polygon", "coordinates": [ [ [ 2681788.994748902507126, 1253837.062800391577184 ], [ 2681788.494536036625504, 1253837.061922637978569 ], [ 2681788.493658280000091, 1253837.562135511776432 ], [ 2681788.993871145881712, 1253837.563013269566 ], [ 2681788.994748902507126, 1253837.062800391577184 ] ] ] } },
{ "type": "Feature", "properties": { "id": "x5_y3", "row": 3, "col": 5 }, "geometry": { "type": "Polygon", "coordinates": [ [ [ 2681780.756075118668377, 1253834.428546364186332 ], [ 2681780.25586225790903, 1253834.427668603137136 ], [ 2681780.254984497092664, 1253834.92788147716783 ], [ 2681780.755197358317673, 1253834.928759237984195 ], [ 2681780.756075118668377, 1253834.428546364186332 ] ] ] } },
{ "type": "Feature", "properties": { "id": "x6_y3", "row": 3, "col": 6 }, "geometry": { "type": "Polygon", "coordinates": [ [ [ 2681783.090598198119551, 1253834.275000598048791 ], [ 2681782.590385336428881, 1253834.274122834205627 ], [ 2681782.589507577009499, 1253834.774335711728781 ], [ 2681783.089720438700169, 1253834.775213469751179 ], [ 2681783.090598198119551, 1253834.275000598048791 ] ] ] } },
{ "type": "Feature", "properties": { "id": "x3_y2", "row": 2, "col": 3 }, "geometry": { "type": "Polygon", "coordinates": [ [ [ 2681772.026740545406938, 1253823.898632843978703 ], [ 2681771.526527696289122, 1253823.897755081532523 ], [ 2681771.525649934075773, 1253824.397967939963564 ], [ 2681772.025862784124911, 1253824.398845703573897 ], [ 2681772.026740545406938, 1253823.898632843978703 ] ] ] } },
{ "type": "Feature", "properties": { "id": "x4_y2", "row": 2, "col": 4 }, "geometry": { "type": "Polygon", "coordinates": [ [ [ 2681774.307260760571808, 1253823.944134868681431 ], [ 2681773.807047910057008, 1253823.943257110426202 ], [ 2681773.806170149240643, 1253824.443469972349703 ], [ 2681774.306383000221103, 1253824.444347732001916 ], [ 2681774.307260760571808, 1253823.944134868681431 ] ] ] } },
{ "type": "Feature", "properties": { "id": "x7_y2", "row": 2, "col": 7 }, "geometry": { "type": "Polygon", "coordinates": [ [ [ 2681786.784742281306535, 1253823.705762390745804 ], [ 2681786.284529425669461, 1253823.704884638078511 ], [ 2681786.28365167370066, 1253824.205097506055608 ], [ 2681786.783864529803395, 1253824.205975257325917 ], [ 2681786.784742281306535, 1253823.705762390745804 ] ] ] } },
{ "type": "Feature", "properties": { "id": "x8_y2", "row": 2, "col": 8 }, "geometry": { "type": "Polygon", "coordinates": [ [ [ 2681789.105271653272212, 1253823.752062653657049 ], [ 2681788.605058796703815, 1253823.751184905180708 ], [ 2681788.604181045666337, 1253824.251397773623466 ], [ 2681789.104393903166056, 1253824.252275520702824 ], [ 2681789.105271653272212, 1253823.752062653657049 ] ] ] } },
{ "type": "Feature", "properties": { "id": "x7_y1", "row": 1, "col": 7 }, "geometry": { "type": "Polygon", "coordinates": [ [ [ 2681786.738163695205003, 1253812.717778835678473 ], [ 2681786.237950846552849, 1253812.716901087202132 ], [ 2681786.237073099240661, 1253813.217113945866004 ], [ 2681786.737285947892815, 1253813.217991692945361 ], [ 2681786.738163695205003, 1253812.717778835678473 ] ] ] } },
{ "type": "Feature", "properties": { "id": "x8_y1", "row": 1, "col": 8 }, "geometry": { "type": "Polygon", "coordinates": [ [ [ 2681789.058693033177406, 1253812.764079072978348 ], [ 2681788.558480183593929, 1253812.763201327063143 ], [ 2681788.557602437678725, 1253813.263414190616459 ], [ 2681789.057815287727863, 1253813.264291933504865 ], [ 2681789.058693033177406, 1253812.764079072978348 ] ] ] } },
{ "type": "Feature", "properties": { "id": "x3_y1", "row": 1, "col": 3 }, "geometry": { "type": "Polygon", "coordinates": [ [ [ 2681772.041235493961722, 1253812.070117883384228 ], [ 2681771.541022652294487, 1253812.069240130716935 ], [ 2681771.540144895203412, 1253812.569452981231734 ], [ 2681772.040357737336308, 1253812.570330736692995 ], [ 2681772.041235493961722, 1253812.070117883384228 ] ] ] } },
{ "type": "Feature", "properties": { "id": "x4_y1", "row": 1, "col": 4 }, "geometry": { "type": "Polygon", "coordinates": [ [ [ 2681774.321755673270673, 1253812.115619888762012 ], [ 2681773.821542830206454, 1253812.114742131670937 ], [ 2681773.820665074978024, 1253812.614954984281212 ], [ 2681774.320877918042243, 1253812.615832739975303 ], [ 2681774.321755673270673, 1253812.115619888762012 ] ] ] } },
{ "type": "Feature", "properties": { "id": "x5_y2", "row": 2, "col": 5 }, "geometry": { "type": "Polygon", "coordinates": [ [ [ 2681780.70085535896942, 1253823.318558038910851 ], [ 2681780.200642506126314, 1253823.317680280655622 ], [ 2681780.199764749966562, 1253823.817893147934228 ], [ 2681780.69997760374099, 1253823.818770901998505 ], [ 2681780.70085535896942, 1253823.318558038910851 ] ] ] } },
{ "type": "Feature", "properties": { "id": "x6_y2", "row": 2, "col": 6 }, "geometry": { "type": "Polygon", "coordinates": [ [ [ 2681783.035378402099013, 1253823.165012251120061 ], [ 2681782.535165548324585, 1253823.164134498452768 ], [ 2681782.534287793561816, 1253823.664347362238914 ], [ 2681783.034500647801906, 1253823.665225114906207 ], [ 2681783.035378402099013, 1253823.165012251120061 ] ] ] } },
{ "type": "Feature", "properties": { "id": "x1_y1", "row": 1, "col": 1 }, "geometry": { "type": "Polygon", "coordinates": [ [ [ 2681766.051434552296996, 1253811.363770031603053 ], [ 2681765.55122171388939, 1253811.36289227148518 ], [ 2681765.550343953538686, 1253811.863105119904503 ], [ 2681766.050556791946292, 1253811.863982879789546 ], [ 2681766.051434552296996, 1253811.363770031603053 ] ] ] } },
{ "type": "Feature", "properties": { "id": "x2_y1", "row": 1, "col": 2 }, "geometry": { "type": "Polygon", "coordinates": [ [ [ 2681768.331954717170447, 1253811.409272051649168 ], [ 2681767.831741877365857, 1253811.408394293161109 ], [ 2681767.830864118412137, 1253811.908607139252126 ], [ 2681768.331076958216727, 1253811.909484903328121 ], [ 2681768.331954717170447, 1253811.409272051649168 ] ] ] } },
{ "type": "Feature", "properties": { "id": "x5_y1", "row": 1, "col": 5 }, "geometry": { "type": "Polygon", "coordinates": [ [ [ 2681780.800622847862542, 1253812.953106317669153 ], [ 2681780.300410002004355, 1253812.952228569192812 ], [ 2681780.299532250501215, 1253813.452441426226869 ], [ 2681780.799745096825063, 1253813.453319173306227 ], [ 2681780.800622847862542, 1253812.953106317669153 ] ] ] } },
{ "type": "Feature", "properties": { "id": "x6_y1", "row": 1, "col": 6 }, "geometry": { "type": "Polygon", "coordinates": [ [ [ 2681783.133150156587362, 1253812.899583329679444 ], [ 2681782.632937309332192, 1253812.898705578176305 ], [ 2681782.632059559691697, 1253813.398918441031128 ], [ 2681783.132272406946868, 1253813.39979618950747 ], [ 2681783.133150156587362, 1253812.899583329679444 ] ] ] } },
{ "type": "Feature", "properties": { "id": "x1_y2", "row": 2, "col": 1 }, "geometry": { "type": "Polygon", "coordinates": [ [ [ 2681765.919419968966395, 1253823.545861286576837 ], [ 2681765.419207122176886, 1253823.544983522733673 ], [ 2681765.418329356238246, 1253824.045196382096037 ], [ 2681765.918542203027755, 1253824.046074150130153 ], [ 2681765.919419968966395, 1253823.545861286576837 ] ] ] } },
{ "type": "Feature", "properties": { "id": "x2_y2", "row": 2, "col": 2 }, "geometry": { "type": "Polygon", "coordinates": [ [ [ 2681768.199940170161426, 1253823.591363337822258 ], [ 2681767.699727321974933, 1253823.590485569788143 ], [ 2681767.698849557898939, 1253824.090698431245983 ], [ 2681768.19906240561977, 1253824.091576194856316 ], [ 2681768.199940170161426, 1253823.591363337822258 ] ] ] } },
{ "type": "Feature", "properties": { "id": "x1_y3", "row": 3, "col": 1 }, "geometry": { "type": "Polygon", "coordinates": [ [ [ 2681765.845863890368491, 1253834.018139892024919 ], [ 2681765.345651036594063, 1253834.01726212259382 ], [ 2681765.344773265998811, 1253834.517474990803748 ], [ 2681765.844986119773239, 1253834.518352758837864 ], [ 2681765.845863890368491, 1253834.018139892024919 ] ] ] } },
{ "type": "Feature", "properties": { "id": "x2_y3", "row": 3, "col": 2 }, "geometry": { "type": "Polygon", "coordinates": [ [ [ 2681768.126384122762829, 1253834.063641958404332 ], [ 2681767.626171268057078, 1253834.062764194561169 ], [ 2681767.625293498858809, 1253834.562977056484669 ], [ 2681768.12550635356456, 1253834.563854824518785 ], [ 2681768.126384122762829, 1253834.063641958404332 ] ] ] } },
{ "type": "Feature", "properties": { "id": "x3_y3", "row": 3, "col": 3 }, "geometry": { "type": "Polygon", "coordinates": [ [ [ 2681771.934485286008567, 1253833.592536478303373 ], [ 2681771.434272429440171, 1253833.591658714460209 ], [ 2681771.43339466303587, 1253834.091871582204476 ], [ 2681771.933607519604266, 1253834.09274934604764 ], [ 2681771.934485286008567, 1253833.592536478303373 ] ] ] } },
{ "type": "Feature", "properties": { "id": "x4_y3", "row": 3, "col": 4 }, "geometry": { "type": "Polygon", "coordinates": [ [ [ 2681774.215005529578775, 1253833.638038523960859 ], [ 2681773.714792672544718, 1253833.637160761281848 ], [ 2681773.713914907537401, 1253834.137373628560454 ], [ 2681774.214127764571458, 1253834.138251395197585 ], [ 2681774.215005529578775, 1253833.638038523960859 ] ] ] } },
{ "type": "Feature", "properties": { "id": "x3_y4", "row": 4, "col": 3 }, "geometry": { "type": "Polygon", "coordinates": [ [ [ 2681772.019142466131598, 1253844.293747951975092 ], [ 2681771.518929603043944, 1253844.292870179517195 ], [ 2681771.518051831517369, 1253844.793083057971671 ], [ 2681772.018264695536345, 1253844.793960823211819 ], [ 2681772.019142466131598, 1253844.293747951975092 ] ] ] } },
{ "type": "Feature", "properties": { "id": "x4_y4", "row": 4, "col": 4 }, "geometry": { "type": "Polygon", "coordinates": [ [ [ 2681774.299662742298096, 1253844.339250019518659 ], [ 2681773.79944987827912, 1253844.338372254278511 ], [ 2681773.79857210861519, 1253844.838585124816746 ], [ 2681774.298784973099828, 1253844.839462895644829 ], [ 2681774.299662742298096, 1253844.339250019518659 ] ] ] } },
{ "type": "Feature", "properties": { "id": "x1_y4", "row": 4, "col": 1 }, "geometry": { "type": "Polygon", "coordinates": [ [ [ 2681765.921363879460841, 1253844.174371259752661 ], [ 2681765.421151018701494, 1253844.173493484500796 ], [ 2681765.420273243449628, 1253844.673706358298659 ], [ 2681765.920486104208976, 1253844.674584130523726 ], [ 2681765.921363879460841, 1253844.174371259752661 ] ] ] } },
{ "type": "Feature", "properties": { "id": "x2_y4", "row": 4, "col": 2 }, "geometry": { "type": "Polygon", "coordinates": [ [ [ 2681768.201884142123163, 1253844.219873347785324 ], [ 2681767.701671280898154, 1253844.218995572533458 ], [ 2681767.700793507508934, 1253844.719208447029814 ], [ 2681768.201006368733943, 1253844.720086219254881 ], [ 2681768.201884142123163, 1253844.219873347785324 ] ] ] } }
]
}
