{
"type": "FeatureCollection",
"name": "hypercover_measurement_plots_250807",
"category": "measurement_plots",
"mode": "insert",
"crs": { "type": "name", "properties": { "name": "urn:ogc:def:crs:EPSG::2056" } },
"features": [
{ "type": "Feature", "properties": { "id": "x1_y3", "row": 3, "col": 1 }, "geometry": { "type": "Polygon", "coordinates": [ [ [ 2681768.622806174680591, 1253828.110393449896947 ], [ 2681768.122593324165791, 1253828.10951568512246 ], [ 2681768.12171555776149, 1253828.609728547511622 ], [ 2681768.621928408741951, 1253828.610606315080076 ], [ 2681768.622806174680591, 1253828.110393449896947 ] ] ] } },
{ "type": "Feature", "properties": { "id": "x2_y2", "row": 2, "col": 2 }, "geometry": { "type": "Polygon", "coordinates": [ [ [ 2681774.559849391225725, 1253819.510648351395503 ], [ 2681774.059636543504894, 1253819.509770594071597 ], [ 2681774.058758785016835, 1253820.009983452502638 ], [ 2681774.558971633203328, 1253820.01086120842956 ], [ 2681774.559849391225725, 1253819.510648351395503 ] ] ] } },
{ "type": "Feature", "properties": { "id": "x4_y2", "row": 2, "col": 4 }, "geometry": { "type": "Polygon", "coordinates": [ [ [ 2681789.658118273597211, 1253819.811928082257509 ], [ 2681789.157905419357121, 1253819.811050326330587 ], [ 2681789.157027670647949, 1253820.311263198964298 ], [ 2681789.657240525819361, 1253820.312140946509317 ], [ 2681789.658118273597211, 1253819.811928082257509 ] ] ] } },
{ "type": "Feature", "properties": { "id": "x2_y1", "row": 1, "col": 2 }, "geometry": { "type": "Polygon", "coordinates": [ [ [ 2681774.604086520150304, 1253810.50041245110333 ], [ 2681774.10387367894873, 1253810.499534693779424 ], [ 2681774.102995924185961, 1253810.99974754662253 ], [ 2681774.603208766318858, 1253811.000625303946435 ], [ 2681774.604086520150304, 1253810.50041245110333 ] ] ] } },
{ "type": "Feature", "properties": { "id": "x1_y1", "row": 1, "col": 1 }, "geometry": { "type": "Polygon", "coordinates": [ [ [ 2681768.730064399074763, 1253810.08624318591319 ], [ 2681768.229851560201496, 1253810.085365425795317 ], [ 2681768.228973802179098, 1253810.585578277241439 ], [ 2681768.729186641518027, 1253810.586456037359312 ], [ 2681768.730064399074763, 1253810.08624318591319 ] ] ] } },
{ "type": "Feature", "properties": { "id": "x1_y2", "row": 2, "col": 1 }, "geometry": { "type": "Polygon", "coordinates": [ [ [ 2681768.67238774523139, 1253818.819405311252922 ], [ 2681768.172174900304526, 1253818.818527552299201 ], [ 2681768.171297138556838, 1253819.318740405840799 ], [ 2681768.671509983483702, 1253819.319618167588487 ], [ 2681768.67238774523139, 1253818.819405311252922 ] ] ] } },
{ "type": "Feature", "properties": { "id": "x4_y1", "row": 1, "col": 4 }, "geometry": { "type": "Polygon", "coordinates": [ [ [ 2681789.685680186375976, 1253810.535246836254373 ], [ 2681789.185467337723821, 1253810.534369091503322 ], [ 2681789.184589593205601, 1253811.034581951564178 ], [ 2681789.684802441857755, 1253811.035459693288431 ], [ 2681789.685680186375976, 1253810.535246836254373 ] ] ] } },
{ "type": "Feature", "properties": { "id": "x3_y1", "row": 1, "col": 3 }, "geometry": { "type": "Polygon", "coordinates": [ [ [ 2681783.728422137908638, 1253810.655739704146981 ], [ 2681783.228209292050451, 1253810.654861958231777 ], [ 2681783.22733154380694, 1253811.155074814334512 ], [ 2681783.727544389665127, 1253811.155952560249716 ], [ 2681783.728422137908638, 1253810.655739704146981 ] ] ] } },
{ "type": "Feature", "properties": { "id": "x3_y2", "row": 2, "col": 3 }, "geometry": { "type": "Polygon", "coordinates": [ [ [ 2681783.697585125919431, 1253820.129561692010611 ], [ 2681783.197372273541987, 1253820.128683940274641 ], [ 2681783.196494520641863, 1253820.628896801965311 ], [ 2681783.696707373484969, 1253820.629774553701282 ], [ 2681783.697585125919431, 1253820.129561692010611 ] ] ] } },
{ "type": "Feature", "properties": { "id": "x3_y3", "row": 3, "col": 3 }, "geometry": { "type": "Polygon", "coordinates": [ [ [ 2681783.623636367265135, 1253829.762225293321535 ], [ 2681783.123423508368433, 1253829.761347535764799 ], [ 2681783.122545751277357, 1253830.261560407700017 ], [ 2681783.622758610639721, 1253830.262438160832971 ], [ 2681783.623636367265135, 1253829.762225293321535 ] ] ] } },
{ "type": "Feature", "properties": { "id": "x4_y3", "row": 3, "col": 4 }, "geometry": { "type": "Polygon", "coordinates": [ [ [ 2681789.62001176783815, 1253829.726819796022028 ], [ 2681789.119798906613141, 1253829.725942042656243 ], [ 2681789.118921153713018, 1253830.22615491040051 ], [ 2681789.619134015403688, 1253830.227032664930448 ], [ 2681789.62001176783815, 1253829.726819796022028 ] ] ] } },
{ "type": "Feature", "properties": { "id": "x2_y3", "row": 3, "col": 2 }, "geometry": { "type": "Polygon", "coordinates": [ [ [ 2681774.690177754964679, 1253828.430851827375591 ], [ 2681774.189964901190251, 1253828.429974066792056 ], [ 2681774.18908713851124, 1253828.930186932208017 ], [ 2681774.68929999275133, 1253828.931064693955705 ], [ 2681774.690177754964679, 1253828.430851827375591 ] ] ] } },
{ "type": "Feature", "properties": { "id": "x2_y4", "row": 4, "col": 2 }, "geometry": { "type": "Polygon", "coordinates": [ [ [ 2681774.628927509766072, 1253837.244400911731645 ], [ 2681774.128714649938047, 1253837.243523148354143 ], [ 2681774.127836883533746, 1253837.743736019125208 ], [ 2681774.628049743827432, 1253837.744613783899695 ], [ 2681774.628927509766072, 1253837.244400911731645 ] ] ] } },
{ "type": "Feature", "properties": { "id": "x1_y4", "row": 4, "col": 1 }, "geometry": { "type": "Polygon", "coordinates": [ [ [ 2681768.649831041693687, 1253837.759625583421439 ], [ 2681768.149618184193969, 1253837.758747814456001 ], [ 2681768.148740413598716, 1253838.258960681268945 ], [ 2681768.648953271564096, 1253838.259838450234383 ], [ 2681768.649831041693687, 1253837.759625583421439 ] ] ] } },
{ "type": "Feature", "properties": { "id": "x3_y4", "row": 4, "col": 3 }, "geometry": { "type": "Polygon", "coordinates": [ [ [ 2681783.626774197909981, 1253839.050366057315841 ], [ 2681783.12656133249402, 1253839.049488292774186 ], [ 2681783.125683571677655, 1253839.549701167969033 ], [ 2681783.625896437093616, 1253839.550578926922753 ], [ 2681783.626774197909981, 1253839.050366057315841 ] ] ] } },
{ "type": "Feature", "properties": { "id": "x2_y4", "row": 4, "col": 4 }, "geometry": { "type": "Polygon", "coordinates": [ [ [ 2681789.574038772378117, 1253838.67575317970477 ], [ 2681789.073825905099511, 1253838.674875423312187 ], [ 2681789.072948148474097, 1253839.175088301301003 ], [ 2681789.573161015752703, 1253839.175966054666787 ], [ 2681789.574038772378117, 1253838.67575317970477 ] ] ] } }
]
}
