{
"type": "FeatureCollection",
"name": "hypercover_experiment_plots",
"category": "experiment_plots",
"mode": "insert",
"crs": { "type": "name", "properties": { "name": "urn:ogc:def:crs:EPSG::2056" } },
"features": [
{ "type": "Feature", "properties": { "id": "x1_y1", "row": 1, "col": 1 }, "geometry": { "type": "Polygon", "coordinates": [ [ [ 2681763.897558876779, 1253801.855429378338 ], [ 2681790.831600180361, 1253801.855429378338 ], [ 2681790.831600180361, 1253853.363023174694 ], [ 2681763.897558876779, 1253853.363023174694 ], [ 2681763.897558876779, 1253801.855429378338 ] ] ] } }
]
}