{
"type": "FeatureCollection",
"name": "hypercover_250903",
"category": "measurement_plots",
"mode": "insert",
"crs": { "type": "name", "properties": { "name": "urn:ogc:def:crs:EPSG::2056" } },
"features": [
{ "type": "Feature", "properties": { "id": "x3_y4", "row": 4, "col": 3 }, "geometry": { "type": "Polygon", "coordinates": [ [ [ 2681784.304016925860196, 1253840.51405855291523 ], [ 2681783.803804059978575, 1253840.513180792564526 ], [ 2681783.802926298230886, 1253841.013393672415987 ], [ 2681784.303139165043831, 1253841.014271431136876 ], [ 2681784.304016925860196, 1253840.51405855291523 ] ] ] } },
{ "type": "Feature", "properties": { "id": "x4_y4", "row": 4, "col": 4 }, "geometry": { "type": "Polygon", "coordinates": [ [ [ 2681790.121473901905119, 1253840.430001134984195 ], [ 2681789.621261033695191, 1253840.429123376030475 ], [ 2681789.620383276138455, 1253840.929336257046089 ], [ 2681790.120596145279706, 1253840.930214014369994 ], [ 2681790.121473901905119, 1253840.430001134984195 ] ] ] } },
{ "type": "Feature", "properties": { "id": "x2_y4", "row": 4, "col": 2 }, "geometry": { "type": "Polygon", "coordinates": [ [ [ 2681775.07005030522123, 1253839.509284695144743 ], [ 2681774.56983744353056, 1253839.508406932000071 ], [ 2681774.568959676660597, 1253840.008619806263596 ], [ 2681775.069172538351268, 1253840.009497570805252 ], [ 2681775.07005030522123, 1253839.509284695144743 ] ] ] } },
{ "type": "Feature", "properties": { "id": "x1_y4", "row": 4, "col": 1 }, "geometry": { "type": "Polygon", "coordinates": [ [ [ 2681769.281791644636542, 1253839.400462643709034 ], [ 2681768.781578785739839, 1253839.399584873579443 ], [ 2681768.780701014678925, 1253839.899797742487863 ], [ 2681769.280913874041289, 1253839.900675512617454 ], [ 2681769.281791644636542, 1253839.400462643709034 ] ] ] } },
{ "type": "Feature", "properties": { "id": "x4_y3", "row": 3, "col": 4 }, "geometry": { "type": "Polygon", "coordinates": [ [ [ 2681790.149848173372447, 1253831.31797792785801 ], [ 2681789.649635310284793, 1253831.31710017612204 ], [ 2681789.64875755738467, 1253831.817313046893105 ], [ 2681790.148970420006663, 1253831.818190799793229 ], [ 2681790.149848173372447, 1253831.31797792785801 ] ] ] } },
{ "type": "Feature", "properties": { "id": "x3_y3", "row": 3, "col": 3 }, "geometry": { "type": "Polygon", "coordinates": [ [ [ 2681784.348769095726311, 1253830.848668978083879 ], [ 2681783.848556236363947, 1253830.847791222156957 ], [ 2681783.847678479272872, 1253831.348004091763869 ], [ 2681784.347891339566559, 1253831.348881849087775 ], [ 2681784.348769095726311, 1253830.848668978083879 ] ] ] } },
{ "type": "Feature", "properties": { "id": "x1_y3", "row": 3, "col": 1 }, "geometry": { "type": "Polygon", "coordinates": [ [ [ 2681769.144537716638297, 1253830.565317013999447 ], [ 2681768.64432486332953, 1253830.564439248293638 ], [ 2681768.643447096925229, 1253831.064652111846954 ], [ 2681769.143659949768335, 1253831.065529874758795 ], [ 2681769.144537716638297, 1253830.565317013999447 ] ] ] } },
{ "type": "Feature", "properties": { "id": "x2_y3", "row": 3, "col": 2 }, "geometry": { "type": "Polygon", "coordinates": [ [ [ 2681775.110430945642292, 1253830.464211202925071 ], [ 2681774.610218090005219, 1253830.463333438383415 ], [ 2681774.609340327326208, 1253830.963546307291836 ], [ 2681775.109553182963282, 1253830.964424067409709 ], [ 2681775.110430945642292, 1253830.464211202925071 ] ] ] } },
{ "type": "Feature", "properties": { "id": "x2_y2", "row": 2, "col": 2 }, "geometry": { "type": "Polygon", "coordinates": [ [ [ 2681775.183636896312237, 1253821.780026881722733 ], [ 2681774.68342404672876, 1253821.779149124631658 ], [ 2681774.68254628777504, 1253822.279361986322328 ], [ 2681775.182759137824178, 1253822.280239746207371 ], [ 2681775.183636896312237, 1253821.780026881722733 ] ] ] } },
{ "type": "Feature", "properties": { "id": "x1_y2", "row": 2, "col": 1 }, "geometry": { "type": "Polygon", "coordinates": [ [ [ 2681769.276944718789309, 1253821.588789850706235 ], [ 2681768.7767318719998, 1253821.587912087794393 ], [ 2681768.775854108855128, 1253822.088124944828451 ], [ 2681769.27606695657596, 1253822.089002707507461 ], [ 2681769.276944718789309, 1253821.588789850706235 ] ] ] } },
{ "type": "Feature", "properties": { "id": "x3_y2", "row": 2, "col": 3 }, "geometry": { "type": "Polygon", "coordinates": [ [ [ 2681784.410751196555793, 1253821.723974487511441 ], [ 2681783.910538342781365, 1253821.723096734611318 ], [ 2681783.909660589881241, 1253822.22330960072577 ], [ 2681784.409873444121331, 1253822.22418735222891 ], [ 2681784.410751196555793, 1253821.723974487511441 ] ] ] } },
{ "type": "Feature", "properties": { "id": "x1_y1", "row": 1, "col": 1 }, "geometry": { "type": "Polygon", "coordinates": [ [ [ 2681769.257302236743271, 1253812.375743953511119 ], [ 2681768.757089396007359, 1253812.37486619502306 ], [ 2681768.756211637053639, 1253812.875079046934843 ], [ 2681769.256424477789551, 1253812.875956803793088 ], [ 2681769.257302236743271, 1253812.375743953511119 ] ] ] } },
{ "type": "Feature", "properties": { "id": "x4_y1", "row": 1, "col": 4 }, "geometry": { "type": "Polygon", "coordinates": [ [ [ 2681790.296994548756629, 1253812.575397339416668 ], [ 2681789.796781699173152, 1253812.574519593734294 ], [ 2681789.795903954189271, 1253813.07473245379515 ], [ 2681790.29611680470407, 1253813.07561019808054 ], [ 2681790.296994548756629, 1253812.575397339416668 ] ] ] } },
{ "type": "Feature", "properties": { "id": "x2_y1", "row": 1, "col": 2 }, "geometry": { "type": "Polygon", "coordinates": [ [ [ 2681775.174247114453465, 1253812.220293394988403 ], [ 2681774.674034270923585, 1253812.219415643485263 ], [ 2681774.673156516626477, 1253812.719628493534401 ], [ 2681775.173369359690696, 1253812.720506249228492 ], [ 2681775.174247114453465, 1253812.220293394988403 ] ] ] } },
{ "type": "Feature", "properties": { "id": "x4_y2", "row": 2, "col": 4 }, "geometry": { "type": "Polygon", "coordinates": [ [ [ 2681790.185422916896641, 1253822.179414492100477 ], [ 2681789.685210060793906, 1253822.178536743391305 ], [ 2681789.684332311153412, 1253822.678749614395201 ], [ 2681790.184545167721808, 1253822.679627361707389 ], [ 2681790.185422916896641, 1253822.179414492100477 ] ] ] } },
{ "type": "Feature", "properties": { "id": "x3_y1", "row": 1, "col": 3 }, "geometry": { "type": "Polygon", "coordinates": [ [ [ 2681784.496622939128429, 1253812.563003989402205 ], [ 2681783.996410091873258, 1253812.562126239296049 ], [ 2681783.995532343164086, 1253813.062339094700292 ], [ 2681784.495745190884918, 1253813.063216844806448 ], [ 2681784.496622939128429, 1253812.563003989402205 ] ] ] } }
]
}
