{
"type": "FeatureCollection",
"name": "hypercover_250918",
"category": "measurement_plots",
"mode": "insert",
"crs": { "type": "name", "properties": { "name": "urn:ogc:def:crs:EPSG::2056" } },
"features": [
{ "type": "Feature", "properties": { "id": "x5_y4", "row": 4, "col": 5 }, "geometry": { "type": "Polygon", "coordinates": [ [ [ 2681780.807562370318919, 1253842.427758991485462 ], [ 2681780.307349504902959, 1253842.426881227176636 ], [ 2681780.306471739895642, 1253842.927094103069976 ], [ 2681780.806684606242925, 1253842.927971865748987 ], [ 2681780.807562370318919, 1253842.427758991485462 ] ] ] } },
{ "type": "Feature", "properties": { "id": "x6_y4", "row": 4, "col": 6 }, "geometry": { "type": "Polygon", "coordinates": [ [ [ 2681783.448164810426533, 1253842.480445556808263 ], [ 2681782.947951943147928, 1253842.479567799717188 ], [ 2681782.947074180468917, 1253842.979780678637326 ], [ 2681783.447287048213184, 1253842.980658436892554 ], [ 2681783.448164810426533, 1253842.480445556808263 ] ] ] } },
{ "type": "Feature", "properties": { "id": "x7_y4", "row": 4, "col": 7 }, "geometry": { "type": "Polygon", "coordinates": [ [ [ 2681786.621531167067587, 1253842.278488605283201 ], [ 2681786.121318298857659, 1253842.277610849589109 ], [ 2681786.120440538506955, 1253842.777823728742078 ], [ 2681786.620653407182544, 1253842.778701486997306 ], [ 2681786.621531167067587, 1253842.278488605283201 ] ] ] } },
{ "type": "Feature", "properties": { "id": "x1_y4", "row": 4, "col": 8 }, "geometry": { "type": "Polygon", "coordinates": [ [ [ 2681789.262133620679379, 1253842.331175159197301 ], [ 2681788.761920751072466, 1253842.330297402106225 ], [ 2681788.761042992584407, 1253842.830510281492025 ], [ 2681789.261255862191319, 1253842.831388041144237 ], [ 2681789.262133620679379, 1253842.331175159197301 ] ] ] } },
{ "type": "Feature", "properties": { "id": "x3_y4", "row": 4, "col": 3 }, "geometry": { "type": "Polygon", "coordinates": [ [ [ 2681771.654536357615143, 1253841.60447288188152 ], [ 2681771.154323496855795, 1253841.60359511198476 ], [ 2681771.153445726260543, 1253842.103807982057333 ], [ 2681771.653658587951213, 1253842.104685751954094 ], [ 2681771.654536357615143, 1253841.60447288188152 ] ] ] } },
{ "type": "Feature", "properties": { "id": "x4_y4", "row": 4, "col": 4 }, "geometry": { "type": "Polygon", "coordinates": [ [ [ 2681774.295138773042709, 1253841.657159484922886 ], [ 2681773.794925910420716, 1253841.656281713629141 ], [ 2681773.79404814215377, 1253842.156494586728513 ], [ 2681774.294261004775763, 1253842.157372356625274 ], [ 2681774.295138773042709, 1253841.657159484922886 ] ] ] } },
{ "type": "Feature", "properties": { "id": "x1_y4", "row": 4, "col": 1 }, "geometry": { "type": "Polygon", "coordinates": [ [ [ 2681765.684717576950788, 1253841.370241405209526 ], [ 2681765.184504718519747, 1253841.369363631121814 ], [ 2681765.183626944199204, 1253841.869576501427218 ], [ 2681765.683839802630246, 1253841.870454272488132 ], [ 2681765.684717576950788, 1253841.370241405209526 ] ] ] } },
{ "type": "Feature", "properties": { "id": "x2_y4", "row": 4, "col": 2 }, "geometry": { "type": "Polygon", "coordinates": [ [ [ 2681768.32531997654587, 1253841.422928024316207 ], [ 2681767.825107116717845, 1253841.422050254419446 ], [ 2681767.824229344725609, 1253841.922263123327866 ], [ 2681768.324442204553634, 1253841.923140897415578 ], [ 2681768.32531997654587, 1253841.422928024316207 ] ] ] } },
{ "type": "Feature", "properties": { "id": "x7_y3", "row": 3, "col": 7 }, "geometry": { "type": "Polygon", "coordinates": [ [ [ 2681786.767693423200399, 1253833.519515065010637 ], [ 2681786.267480560578406, 1253833.518637309549376 ], [ 2681786.266602803952992, 1253834.018850184511393 ], [ 2681786.766815667040646, 1253834.019727939972654 ], [ 2681786.767693423200399, 1253833.519515065010637 ] ] ] } },
{ "type": "Feature", "properties": { "id": "x8_y3", "row": 3, "col": 8 }, "geometry": { "type": "Polygon", "coordinates": [ [ [ 2681789.408295846078545, 1253833.572201594477519 ], [ 2681788.908082982525229, 1253833.571323837619275 ], [ 2681788.907205227762461, 1253834.07153671560809 ], [ 2681789.407418092247099, 1253834.072414469439536 ], [ 2681789.408295846078545, 1253833.572201594477519 ] ] ] } },
{ "type": "Feature", "properties": { "id": "x5_y3", "row": 3, "col": 5 }, "geometry": { "type": "Polygon", "coordinates": [ [ [ 2681780.96220790175721, 1253833.322454691631719 ], [ 2681780.461995041929185, 1253833.321576931746677 ], [ 2681780.46111728111282, 1253833.821789802750573 ], [ 2681780.961330141872168, 1253833.822667559608817 ], [ 2681780.96220790175721, 1253833.322454691631719 ] ] ] } },
{ "type": "Feature", "properties": { "id": "x6_y3", "row": 3, "col": 6 }, "geometry": { "type": "Polygon", "coordinates": [ [ [ 2681783.602810309734195, 1253833.375141236698255 ], [ 2681783.102597448974848, 1253833.374263481236994 ], [ 2681783.101719690486789, 1253833.874476355034858 ], [ 2681783.601932551711798, 1253833.875354109099135 ], [ 2681783.602810309734195, 1253833.375141236698255 ] ] ] } },
{ "type": "Feature", "properties": { "id": "x1_y3", "row": 3, "col": 1 }, "geometry": { "type": "Polygon", "coordinates": [ [ [ 2681765.742905762977898, 1253832.555040994891897 ], [ 2681765.242692910134792, 1253832.554163223830983 ], [ 2681765.241815140005201, 1253833.054376090178266 ], [ 2681765.742027992848307, 1253833.055253862636164 ], [ 2681765.742905762977898, 1253832.555040994891897 ] ] ] } },
{ "type": "Feature", "properties": { "id": "x2_y3", "row": 3, "col": 2 }, "geometry": { "type": "Polygon", "coordinates": [ [ [ 2681768.383508132304996, 1253832.607727595604956 ], [ 2681767.883295278530568, 1253832.606849830131978 ], [ 2681767.882417509797961, 1253833.107062690891325 ], [ 2681768.38263036403805, 1253833.107940459158272 ], [ 2681768.383508132304996, 1253832.607727595604956 ] ] ] } },
{ "type": "Feature", "properties": { "id": "x3_y3", "row": 3, "col": 3 }, "geometry": { "type": "Polygon", "coordinates": [ [ [ 2681771.474469820968807, 1253832.06605071364902 ], [ 2681770.974256966263056, 1253832.065172950970009 ], [ 2681770.973379200324416, 1253832.565385814988986 ], [ 2681771.473592055495828, 1253832.566263581858948 ], [ 2681771.474469820968807, 1253832.06605071364902 ] ] ] } },
{ "type": "Feature", "properties": { "id": "x4_y3", "row": 3, "col": 4 }, "geometry": { "type": "Polygon", "coordinates": [ [ [ 2681774.115072202403098, 1253832.118737288983539 ], [ 2681773.614859346300364, 1253832.117859527468681 ], [ 2681773.613981582224369, 1253832.618072397308424 ], [ 2681774.114194438327104, 1253832.618950159987435 ], [ 2681774.115072202403098, 1253832.118737288983539 ] ] ] } },
{ "type": "Feature", "properties": { "id": "x1_y2", "row": 2, "col": 1 }, "geometry": { "type": "Polygon", "coordinates": [ [ [ 2681765.610200684517622, 1253824.063642340013757 ], [ 2681765.109987837728113, 1253824.06276457477361 ], [ 2681765.109110071323812, 1253824.562977435765788 ], [ 2681765.609322918113321, 1253824.563855200773105 ], [ 2681765.610200684517622, 1253824.063642340013757 ] ] ] } },
{ "type": "Feature", "properties": { "id": "x2_y2", "row": 2, "col": 2 }, "geometry": { "type": "Polygon", "coordinates": [ [ [ 2681768.250803024042398, 1253824.116328922333196 ], [ 2681767.750590175855905, 1253824.115451157093048 ], [ 2681767.749712411314249, 1253824.615664018085226 ], [ 2681768.249925259500742, 1253824.61654178192839 ], [ 2681768.250803024042398, 1253824.116328922333196 ] ] ] } },
{ "type": "Feature", "properties": { "id": "x3_y2", "row": 2, "col": 3 }, "geometry": { "type": "Polygon", "coordinates": [ [ [ 2681771.572372577153146, 1253823.898153401911259 ], [ 2681771.072159728035331, 1253823.897275636671111 ], [ 2681771.07128196535632, 1253824.397488502087072 ], [ 2681771.571494814939797, 1253824.398366263136268 ], [ 2681771.572372577153146, 1253823.898153401911259 ] ] ] } },
{ "type": "Feature", "properties": { "id": "x4_y2", "row": 2, "col": 4 }, "geometry": { "type": "Polygon", "coordinates": [ [ [ 2681774.212974930647761, 1253823.950839957688004 ], [ 2681773.7127620796673, 1253823.949962200829759 ], [ 2681773.711884319316596, 1253824.450175062054768 ], [ 2681774.212097170297056, 1253824.451052823103964 ], [ 2681774.212974930647761, 1253823.950839957688004 ] ] ] } },
{ "type": "Feature", "properties": { "id": "x5_y2", "row": 2, "col": 5 }, "geometry": { "type": "Polygon", "coordinates": [ [ [ 2681781.02052109548822, 1253823.977983861463144 ], [ 2681780.520308242179453, 1253823.977106106001884 ], [ 2681780.519430486019701, 1253824.477318968158215 ], [ 2681781.019643339794129, 1253824.478196723386645 ], [ 2681781.02052109548822, 1253823.977983861463144 ] ] ] } },
{ "type": "Feature", "properties": { "id": "x6_y2", "row": 2, "col": 6 }, "geometry": { "type": "Polygon", "coordinates": [ [ [ 2681783.661123471800238, 1253824.030670385574922 ], [ 2681783.160910617094487, 1253824.029792630113661 ], [ 2681783.160032862331718, 1253824.530005497857928 ], [ 2681783.66024571750313, 1253824.530883251689374 ], [ 2681783.661123471800238, 1253824.030670385574922 ] ] ] } },
{ "type": "Feature", "properties": { "id": "x7_y2", "row": 2, "col": 7 }, "geometry": { "type": "Polygon", "coordinates": [ [ [ 2681786.777363322675228, 1253824.032785124611109 ], [ 2681786.277150466572493, 1253824.031907371943817 ], [ 2681786.276272714138031, 1253824.532120240852237 ], [ 2681786.776485570706427, 1253824.532997990725562 ], [ 2681786.777363322675228, 1253824.032785124611109 ] ] ] } },
{ "type": "Feature", "properties": { "id": "x8_y2", "row": 2, "col": 8 }, "geometry": { "type": "Polygon", "coordinates": [ [ [ 2681789.417965712957084, 1253824.085471629863605 ], [ 2681788.917752855457366, 1253824.084593881620094 ], [ 2681788.916875104885548, 1253824.584806749131531 ], [ 2681789.417087962850928, 1253824.585684498772025 ], [ 2681789.417965712957084, 1253824.085471629863605 ] ] ] } },
{ "type": "Feature", "properties": { "id": "x1_y1", "row": 1, "col": 1 }, "geometry": { "type": "Polygon", "coordinates": [ [ [ 2681765.545728018507361, 1253814.745738793164492 ], [ 2681765.045515177771449, 1253814.74486103374511 ], [ 2681765.0446374155581, 1253815.245073886588216 ], [ 2681765.544850256759673, 1253815.245951646007597 ], [ 2681765.545728018507361, 1253814.745738793164492 ] ] ] } },
{ "type": "Feature", "properties": { "id": "x2_y1", "row": 1, "col": 2 }, "geometry": { "type": "Polygon", "coordinates": [ [ [ 2681768.186330325435847, 1253814.798425352666527 ], [ 2681767.686117483302951, 1253814.797547591850162 ], [ 2681767.685239722952247, 1253815.297760443296283 ], [ 2681768.185452565085143, 1253815.298638206906617 ], [ 2681768.186330325435847, 1253814.798425352666527 ] ] ] } },
{ "type": "Feature", "properties": { "id": "x3_y1", "row": 1, "col": 3 }, "geometry": { "type": "Polygon", "coordinates": [ [ [ 2681771.650420238263905, 1253814.634921764489263 ], [ 2681771.150207395199686, 1253814.634044005069882 ], [ 2681771.149329637177289, 1253815.134256860939786 ], [ 2681771.649542480707169, 1253815.1351346175652 ], [ 2681771.650420238263905, 1253814.634921764489263 ] ] ] } },
{ "type": "Feature", "properties": { "id": "x4_y1", "row": 1, "col": 4 }, "geometry": { "type": "Polygon", "coordinates": [ [ [ 2681774.291022559627891, 1253814.687608298379928 ], [ 2681773.790809715166688, 1253814.686730542918667 ], [ 2681773.789931958541274, 1253815.186943399021402 ], [ 2681774.290144803468138, 1253815.187821152852848 ], [ 2681774.291022559627891, 1253814.687608298379928 ] ] ] } },
{ "type": "Feature", "properties": { "id": "x5_y1", "row": 1, "col": 5 }, "geometry": { "type": "Polygon", "coordinates": [ [ [ 2681781.094905180390924, 1253814.229416899615899 ], [ 2681780.594692333135754, 1253814.22853914857842 ], [ 2681780.593814581632614, 1253814.728752006776631 ], [ 2681781.094027428887784, 1253814.729629759211093 ], [ 2681781.094905180390924, 1253814.229416899615899 ] ] ] } },
{ "type": "Feature", "properties": { "id": "x6_y1", "row": 1, "col": 6 }, "geometry": { "type": "Polygon", "coordinates": [ [ [ 2681783.735507522709668, 1253814.28210340323858 ], [ 2681783.235294674057513, 1253814.281225653365254 ], [ 2681783.234416924417019, 1253814.78143851319328 ], [ 2681783.734629773069173, 1253814.782316262833774 ], [ 2681783.735507522709668, 1253814.28210340323858 ] ] ] } },
{ "type": "Feature", "properties": { "id": "x7_y1", "row": 1, "col": 7 }, "geometry": { "type": "Polygon", "coordinates": [ [ [ 2681786.855420909821987, 1253814.10010153031908 ], [ 2681786.35520806023851, 1253814.099223783239722 ], [ 2681786.354330312460661, 1253814.599436648888513 ], [ 2681786.854543162509799, 1253814.600314392941073 ], [ 2681786.855420909821987, 1253814.10010153031908 ] ] ] } },
{ "type": "Feature", "properties": { "id": "x8_y1", "row": 1, "col": 8 }, "geometry": { "type": "Polygon", "coordinates": [ [ [ 2681789.496023265644908, 1253814.152788015082479 ], [ 2681788.995810415130109, 1253814.151910269632936 ], [ 2681788.994932668749243, 1253814.652123130857944 ], [ 2681789.495145519729704, 1253814.65300088073127 ], [ 2681789.496023265644908, 1253814.152788015082479 ] ] ] } }
]
}
