{
"type": "FeatureCollection",
"name": "hypercover_treatment_plots",
"category": "treatment_plots",
"mode": "insert",
"crs": { "type": "name", "properties": { "name": "urn:ogc:def:crs:EPSG::2056" } },
"features": [
{ "type": "Feature", "properties": { "id": "x7_y1", "row": 1, "col": 7 }, "geometry": { "type": "Polygon", "coordinates": [ [ [ 2681785.029728232417256, 1253802.274526543915272 ], [ 2681784.902351160068065, 1253853.296158761484548 ], [ 2681787.703538847155869, 1253853.303152068052441 ], [ 2681787.830915728583932, 1253802.281519723823294 ], [ 2681785.029728232417256, 1253802.274526543915272 ] ] ] } },
{ "type": "Feature", "properties": { "id": "x2_y1", "row": 1, "col": 2 }, "geometry": { "type": "Polygon", "coordinates": [ [ [ 2681767.025621745269746, 1253801.915300435619429 ], [ 2681766.898243463598192, 1253852.936931819887832 ], [ 2681769.699431104119867, 1253852.94392519001849 ], [ 2681769.826809195801616, 1253801.922293683281168 ], [ 2681767.025621745269746, 1253801.915300435619429 ] ] ] } },
{ "type": "Feature", "properties": { "id": "x3_y1", "row": 1, "col": 3 }, "geometry": { "type": "Polygon", "coordinates": [ [ [ 2681770.026306138839573, 1253801.975171485217288 ], [ 2681769.898928058333695, 1253852.996803007321432 ], [ 2681772.700115707237273, 1253853.003796367440373 ], [ 2681772.827493596822023, 1253801.982164718909189 ], [ 2681770.026306138839573, 1253801.975171485217288 ] ] ] } },
{ "type": "Feature", "properties": { "id": "x1_y1", "row": 1, "col": 1 }, "geometry": { "type": "Polygon", "coordinates": [ [ [ 2681764.024937360547483, 1253801.855429378338158 ], [ 2681763.89755887677893, 1253852.877060623606667 ], [ 2681766.698746510315686, 1253852.884054002352059 ], [ 2681766.826124803163111, 1253801.862422636011615 ], [ 2681764.024937360547483, 1253801.855429378338158 ] ] ] } },
{ "type": "Feature", "properties": { "id": "x4_y1", "row": 1, "col": 4 }, "geometry": { "type": "Polygon", "coordinates": [ [ [ 2681773.026990540325642, 1253802.035042520146817 ], [ 2681772.899612661916763, 1253853.056674178689718 ], [ 2681775.700800318270922, 1253853.063667529029772 ], [ 2681775.828178006224334, 1253802.042035739868879 ], [ 2681773.026990540325642, 1253802.035042520146817 ] ] ] } },
{ "type": "Feature", "properties": { "id": "x5_y1", "row": 1, "col": 5 }, "geometry": { "type": "Polygon", "coordinates": [ [ [ 2681779.028359369374812, 1253802.15478455205448 ], [ 2681778.900981894228607, 1253853.176416494185105 ], [ 2681781.702169565483928, 1253853.1834098235704 ], [ 2681781.829546850640327, 1253802.161777754779905 ], [ 2681779.028359369374812, 1253802.15478455205448 ] ] ] } },
{ "type": "Feature", "properties": { "id": "x6_y2", "row": 1, "col": 6 }, "geometry": { "type": "Polygon", "coordinates": [ [ [ 2681782.029043796937913, 1253802.214655553223565 ], [ 2681781.901666522957385, 1253853.236287632957101 ], [ 2681784.702854202128947, 1253853.243280950933695 ], [ 2681784.830231285654008, 1253802.221648743143305 ], [ 2681782.029043796937913, 1253802.214655553223565 ] ] ] } },
{ "type": "Feature", "properties": { "id": "x8_y1", "row": 1, "col": 8 }, "geometry": { "type": "Polygon", "coordinates": [ [ [ 2681788.030412676278502, 1253802.33439751714468 ], [ 2681787.90303580602631, 1253853.356029877904803 ], [ 2681790.704223500099033, 1253853.363023174693808 ], [ 2681790.83160018036142, 1253802.341390688670799 ], [ 2681788.030412676278502, 1253802.33439751714468 ] ] ] } }
]
}
